NORAD_CAT_ID,OBJECT_NAME,OBJECT_TYPE,EPOCH,MEAN_MOTION,ECCENTRICITY,INCLINATION,RA_OF_ASC_NODE,ARG_OF_PERICENTER,MEAN_ANOMALY,BSTAR,MEAN_MOTION_DOT,MEAN_MOTION_DDOT,TLE_LINE0,TLE_LINE1,TLE_LINE2,SEMIMAJOR_AXIS,PERIOD,APOGEE,PERIGEE,DECAYED
55408.0,STARLINK-5092,PAYLOAD,2023-05-19 02:36:14,15.69944681,0.0002461,69.9977,147.6704,258.7854,101.3065,-2.6259e-05,-3.371e-05,0.0,0 STARLINK-5092,1 55408U 23014T   23139.10849749 -.00003371  00000-0 -26259-4 0  9996,2 55408  69.9977 147.6704 0002461 258.7854 101.3065 15.69944681 17065,6737.192,91.723,360.715,357.399,0.0
55408.0,STARLINK-5092,PAYLOAD,2023-05-19 08:43:14,15.69928218,0.0003081,69.9977,146.9528,263.7937,96.2908,-3.2032e-07,-2.51e-06,0.0,0 STARLINK-5092,1 55408U 23014T   23139.36336766 -.00000251  00000-0 -32032-6 0  9996,2 55408  69.9977 146.9528 0003081 263.7937  96.2908 15.69928218 17109,6737.239,91.724,361.18,357.029,0.0
55408.0,STARLINK-5092,PAYLOAD,2023-05-19 17:53:45,15.69926032,0.0003261,69.9974,145.8787,271.761,88.3212,6.2146e-06,5.35e-06,0.0,0 STARLINK-5092,1 55408U 23014T   23139.74566792  .00000535  00000-0  62146-5 0  9993,2 55408  69.9974 145.8787 0003261 271.7610  88.3212 15.69926032 18101,6737.246,91.724,361.308,356.914,0.0
55408.0,STARLINK-5092,PAYLOAD,2023-05-20 03:04:16,15.69915498,0.0003446,69.9979,144.8038,266.0723,94.0078,2.2211e-05,2.458e-05,0.0,0 STARLINK-5092,1 55408U 23014T   23140.12797264  .00002458  00000-0  22211-4 0  9991,2 55408  69.9979 144.8038 0003446 266.0723  94.0078 15.69915498 17221,6737.276,91.725,361.462,356.819,0.0
55408.0,STARLINK-5092,PAYLOAD,2023-05-20 09:11:16,15.69929461,0.0003369,69.9973,144.0868,267.0304,93.0506,3.2543e-05,3.703e-05,0.0,0 STARLINK-5092,1 55408U 23014T   23140.38283110  .00003703  00000-0  32543-4 0  9992,2 55408  69.9973 144.0868 0003369 267.0304  93.0506 15.69929461 17262,6737.236,91.724,361.371,356.831,0.0
55408.0,STARLINK-5092,PAYLOAD,2023-05-21 09:39:20,15.69890791,0.0003261,69.9988,141.2209,262.8228,97.2597,-5.2729e-05,-6.539e-05,0.0,0 STARLINK-5092,1 55408U 23014T   23141.40232046 -.00006539  00000-0 -52729-4 0  9998,2 55408  69.9988 141.2209 0003261 262.8228  97.2597 15.69890791 17422,6737.346,91.726,361.408,357.014,0.0
55408.0,STARLINK-5092,PAYLOAD,2023-05-22 00:56:50,15.69937975,0.0002878,70.0006,139.4319,248.5693,111.5196,3.5153e-05,4.018e-05,0.0,0 STARLINK-5092,1 55408U 23014T   23142.03946812  .00004018  00000-0  35153-4 0  9991,2 55408  70.0006 139.4319 0002878 248.5693 111.5196 15.69937975 17529,6737.211,91.723,361.015,357.137,0.0
55408.0,STARLINK-5092,PAYLOAD,2023-05-22 08:35:35,15.69943804,0.0003013,70.001,138.5361,247.4631,112.6246,4.2804e-05,4.941e-05,0.0,0 STARLINK-5092,1 55408U 23014T   23142.35804750  .00004941  00000-0  42804-4 0  9996,2 55408  70.0010 138.5361 0003013 247.4631 112.6246 15.69943804 18519,6737.195,91.723,361.09,357.03,0.0
55408.0,STARLINK-5092,PAYLOAD,2023-05-23 01:24:53,15.69901545,0.0003345,69.9998,136.5646,244.6633,115.4216,3.3064e-05,3.761e-05,0.0,0 STARLINK-5092,1 55408U 23014T   23143.05895504  .00003761  00000-0  33064-4 0  9998,2 55408  69.9998 136.5646 0003345 244.6633 115.4216 15.69901545 17685,6737.316,91.725,361.434,356.927,0.0
55408.0,STARLINK-5092,PAYLOAD,2023-05-23 09:03:40,15.69889229,0.0003363,69.9997,135.669,258.7095,101.3722,9.0001e-07,-1.05e-06,0.0,0 STARLINK-5092,1 55408U 23014T   23143.37754957 -.00000105  00000-0  90001-6 0  9995,2 55408  69.9997 135.6690 0003363 258.7095 101.3722 15.69889229 17737,6737.351,91.726,361.482,356.95,0.0
55408.0,STARLINK-5092,PAYLOAD,2023-05-24 00:21:09,15.69939498,0.0003699,69.9995,133.8788,265.8901,94.1871,7.3684e-06,6.74e-06,0.0,0 STARLINK-5092,1 55408U 23014T   23144.01469160  .00000674  00000-0  73684-5 0  9993,2 55408  69.9995 133.8788 0003699 265.8901  94.1871 15.69939498 17839,6737.207,91.723,361.564,356.58,0.0
55408.0,STARLINK-5092,PAYLOAD,2023-05-24 01:52:53,15.69948817,0.0002969,70.0013,133.6993,241.6679,118.4217,2.7707e-05,3.123e-05,0.0,0 STARLINK-5092,1 55408U 23014T   23144.07840255  .00003123  00000-0  27707-4 0  9993,2 55408  70.0013 133.6993 0002969 241.6679 118.4217 15.69948817 17842,6737.18,91.723,361.046,357.045,0.0
55408.0,STARLINK-5092,PAYLOAD,2023-05-24 07:59:54,15.6995153,0.0002909,70.0014,132.983,240.5598,119.5307,3.8417e-05,4.414e-05,0.0,0 STARLINK-5092,1 55408U 23014T   23144.33326578  .00004414  00000-0  38417-4 0  9993,2 55408  70.0014 132.9830 0002909 240.5598 119.5307 15.69951530 18824,6737.173,91.723,360.998,357.078,0.0
55408.0,STARLINK-5092,PAYLOAD,2023-05-26 02:48:58,15.69936103,0.0003236,69.9974,127.9628,256.2387,103.8448,-2.3976e-05,-3.096e-05,0.0,0 STARLINK-5092,1 55408U 23014T   23146.11734695 -.00003096  00000-0 -23976-4 0  9995,2 55408  69.9974 127.9628 0003236 256.2387 103.8448 15.69936103 18167,6737.217,91.723,361.262,356.902,0.0
55408.0,STARLINK-5092,PAYLOAD,2023-05-26 08:55:58,15.69939469,0.0003428,69.998,127.2481,263.2997,96.7809,-1.3452e-05,-1.831e-05,0.0,0 STARLINK-5092,1 55408U 23014T   23146.37220855 -.00001831  00000-0 -13452-4 0  9994,2 55408  69.9980 127.2481 0003428 263.2997  96.7809 15.69939469 19140,6737.207,91.723,361.382,356.763,0.0
55408.0,STARLINK-5092,PAYLOAD,2023-05-27 07:52:15,15.69932248,0.0003352,69.9969,124.5612,263.327,96.7544,-4.273e-06,-7.27e-06,0.0,0 STARLINK-5092,1 55408U 23014T   23147.32796029 -.00000727  00000-0 -42730-5 0  9996,2 55408  69.9969 124.5612 0003352 263.3270  96.7544 15.69932248 18350,6737.228,91.724,361.351,356.835,0.0
55408.0,STARLINK-5092,PAYLOAD,2023-05-27 15:31:01,15.69922651,0.0003289,69.9974,123.6652,264.9193,95.1627,1.6617e-05,1.786e-05,0.0,0 STARLINK-5092,1 55408U 23014T   23147.64654739  .00001786  00000-0  16617-4 0  9990,2 55408  69.9974 123.6652 0003289 264.9193  95.1627 15.69922651 18408,6737.255,91.724,361.336,356.904,0.0
55408.0,STARLINK-5092,PAYLOAD,2023-05-27 21:38:02,15.69923285,0.0003264,69.9977,122.9491,263.4249,96.6575,1.3055e-05,1.357e-05,0.0,0 STARLINK-5092,1 55408U 23014T   23147.90141516  .00001357  00000-0  13055-4 0  9990,2 55408  69.9977 122.9491 0003264 263.4249  96.6575 15.69923285 19383,6737.253,91.724,361.318,356.919,0.0
55408.0,STARLINK-5092,PAYLOAD,2023-05-28 00:41:32,15.69923889,0.0002993,69.998,122.5907,257.7612,102.3248,1.1228e-05,1.138e-05,0.0,0 STARLINK-5092,1 55408U 23014T   23148.02884864  .00001138  00000-0  11228-4 0  9991,2 55408  69.9980 122.5907 0002993 257.7612 102.3248 15.69923889 19408,6737.252,91.724,361.133,357.1,0.0
55408.0,STARLINK-5092,PAYLOAD,2023-05-28 08:20:18,15.69917221,0.0003026,69.9971,121.6953,265.4839,94.6011,-2.2845e-06,-4.87e-06,0.0,0 STARLINK-5092,1 55408U 23014T   23148.34743921 -.00000487  00000-0 -22845-5 0  9990,2 55408  69.9971 121.6953 0003026 265.4839  94.6011 15.69917221 18519,6737.271,91.725,361.175,357.097,0.0
55408.0,STARLINK-5092,PAYLOAD,2023-05-28 15:59:03,15.69926039,0.0003154,69.9966,120.7978,262.4319,97.6518,1.5414e-05,1.641e-05,0.0,0 STARLINK-5092,1 55408U 23014T   23148.66601286  .00001641  00000-0  15414-4 0  9996,2 55408  69.9966 120.7978 0003154 262.4319  97.6518 15.69926039 18569,6737.246,91.724,361.236,356.986,0.0
55408.0,STARLINK-5092,PAYLOAD,2023-05-29 07:16:36,15.69909114,0.0003139,69.9978,119.0079,262.6189,97.465,-8.2284e-06,-1.201e-05,0.0,0 STARLINK-5092,1 55408U 23014T   23149.30319557 -.00001201  00000-0 -82284-5 0  9999,2 55408  69.9978 119.0079 0003139 262.6189  97.4650 15.69909114 18666,6737.294,91.725,361.274,357.044,0.0
55408.0,STARLINK-5092,PAYLOAD,2023-05-29 21:02:21,15.69923176,0.0002971,69.9984,117.3962,255.5031,104.5835,1.0779e-05,1.084e-05,0.0,0 STARLINK-5092,1 55408U 23014T   23149.87663507  .00001084  00000-0  10779-4 0  9994,2 55408  69.9984 117.3962 0002971 255.5031 104.5835 15.69923176 19698,6737.254,91.724,361.12,357.117,0.0
55408.0,STARLINK-5092,PAYLOAD,2023-05-30 01:37:36,15.69928835,0.0002903,70.0005,116.8608,248.6484,111.4402,1.4947e-05,1.585e-05,0.0,0 STARLINK-5092,1 55408U 23014T   23150.06778080  .00001585  00000-0  14947-4 0  9997,2 55408  70.0005 116.8608 0002903 248.6484 111.4402 15.69928835 18789,6737.238,91.724,361.058,357.147,0.0
55408.0,STARLINK-5092,PAYLOAD,2023-05-30 07:44:37,15.6991262,0.0002534,69.9988,116.1415,256.2635,103.8279,-5.1898e-06,-8.36e-06,0.0,0 STARLINK-5092,1 55408U 23014T   23150.32266157 -.00000836  00000-0 -51898-5 0  9990,2 55408  69.9988 116.1415 0002534 256.2635 103.8279 15.69912620 18825,6737.284,91.725,360.856,357.442,0.0
55408.0,STARLINK-5092,PAYLOAD,2023-05-30 21:30:23,15.69922557,0.0003287,69.9989,114.5307,265.707,94.375,1.7285e-05,1.866e-05,0.0,0 STARLINK-5092,1 55408U 23014T   23150.89610062  .00001866  00000-0  17285-4 0  9993,2 55408  69.9989 114.5307 0003287 265.7070  94.3750 15.69922557 19854,6737.256,91.724,361.335,356.906,0.0
55408.0,STARLINK-5092,PAYLOAD,2023-05-31 00:33:53,15.69922611,0.0003416,69.9975,114.171,264.3532,95.7274,1.0583e-05,1.06e-05,0.0,0 STARLINK-5092,1 55408U 23014T   23151.02353488  .00001060  00000-0  10583-4 0  9995,2 55408  69.9975 114.1710 0003416 264.3532  95.7274 15.69922611 18930,6737.255,91.724,361.422,356.819,0.0
55408.0,STARLINK-5092,PAYLOAD,2023-05-31 06:40:53,15.69926535,0.0003199,69.9974,113.4545,260.4341,99.6493,1.8331e-06,8e-08,0.0,0 STARLINK-5092,1 55408U 23014T   23151.27840095  .00000008  00000-0  18331-5 0  9998,2 55408  69.9974 113.4545 0003199 260.4341  99.6493 15.69926535 19914,6737.244,91.724,361.264,356.954,0.0
55408.0,STARLINK-5092,PAYLOAD,2023-05-31 21:58:25,15.69930845,0.0003281,69.9976,111.6612,259.3606,100.722,-3.1455e-06,-5.91e-06,0.0,0 STARLINK-5092,1 55408U 23014T   23151.91556797 -.00000591  00000-0 -31455-5 0  9993,2 55408  69.9976 111.6612 0003281 259.3606 100.7220 15.69930845 20018,6737.232,91.724,361.307,356.886,0.0
55408.0,STARLINK-5092,PAYLOAD,2023-06-01 01:01:55,15.69927323,0.0003494,69.9975,111.303,265.5546,94.525,-6.1465e-06,-9.52e-06,0.0,0 STARLINK-5092,1 55408U 23014T   23152.04300328 -.00000952  00000-0 -61465-5 0  9990,2 55408  69.9975 111.3030 0003494 265.5546  94.5250 15.69927323 19092,6737.242,91.724,361.461,356.753,0.0
